<?xml version="1.0"?>
<gpx xmlns="http://www.topografix.com/GPX/1/1" xmlns:xsi="http://www.w3.org/2001/XMLSchema-instance" version="1.1" creator="AllTrails.com" xsi:schemaLocation="http://www.topografix.com/GPX/1/1 http://www.topografix.com/GPX/1/1/gpx.xsd">
  <metadata>
    <name><![CDATA[Sabana Bosara - Rooi Lamunchi]]></name>
    <desc><![CDATA[]]></desc>
    <link href="http://www.alltrails.com">
      <text>AllTrails, LLC</text>
    </link>
    <bounds minlat="12.45939" minlon="-69.95748" maxlat="12.47548" maxlon="-69.94602"/>
  </metadata>
  <trk>
    <name><![CDATA[Sabana Bosara - Rooi Lamunchi]]></name>
    <src>AllTrails</src>
    <trkseg>
      <trkpt lat="12.47401" lon="-69.95744">
        <ele>38.43</ele>
      </trkpt>
      <trkpt lat="12.47374" lon="-69.95744">
        <ele>38.97</ele>
      </trkpt>
      <trkpt lat="12.47368" lon="-69.95741">
        <ele>39.4</ele>
      </trkpt>
      <trkpt lat="12.47367" lon="-69.9574">
        <ele>39.51</ele>
      </trkpt>
      <trkpt lat="12.47351" lon="-69.95741">
        <ele>39.65</ele>
      </trkpt>
      <trkpt lat="12.47289" lon="-69.95745">
        <ele>40.67</ele>
      </trkpt>
      <trkpt lat="12.47277" lon="-69.9574">
        <ele>41.03</ele>
      </trkpt>
      <trkpt lat="12.47253" lon="-69.95724">
        <ele>41.89</ele>
      </trkpt>
      <trkpt lat="12.47234" lon="-69.95705">
        <ele>40.8</ele>
      </trkpt>
      <trkpt lat="12.47222" lon="-69.95687">
        <ele>40.0</ele>
      </trkpt>
      <trkpt lat="12.47211" lon="-69.95675">
        <ele>40.0</ele>
      </trkpt>
      <trkpt lat="12.47202" lon="-69.95665">
        <ele>40.06</ele>
      </trkpt>
      <trkpt lat="12.47187" lon="-69.95648">
        <ele>40.58</ele>
      </trkpt>
      <trkpt lat="12.47174" lon="-69.95633">
        <ele>41.21</ele>
      </trkpt>
      <trkpt lat="12.47171" lon="-69.95629">
        <ele>41.36</ele>
      </trkpt>
      <trkpt lat="12.47171" lon="-69.95629">
        <ele>41.36</ele>
      </trkpt>
      <trkpt lat="12.47167" lon="-69.95624">
        <ele>41.54</ele>
      </trkpt>
      <trkpt lat="12.47163" lon="-69.95619">
        <ele>41.68</ele>
      </trkpt>
      <trkpt lat="12.47159" lon="-69.95614">
        <ele>41.87</ele>
      </trkpt>
      <trkpt lat="12.47156" lon="-69.95608">
        <ele>42.18</ele>
      </trkpt>
      <trkpt lat="12.47152" lon="-69.95603">
        <ele>42.43</ele>
      </trkpt>
      <trkpt lat="12.47148" lon="-69.95598">
        <ele>42.63</ele>
      </trkpt>
      <trkpt lat="12.47145" lon="-69.95593">
        <ele>42.8</ele>
      </trkpt>
      <trkpt lat="12.47141" lon="-69.95588">
        <ele>42.9</ele>
      </trkpt>
      <trkpt lat="12.47141" lon="-69.95588">
        <ele>42.9</ele>
      </trkpt>
      <trkpt lat="12.47137" lon="-69.95584">
        <ele>42.91</ele>
      </trkpt>
      <trkpt lat="12.47132" lon="-69.95579">
        <ele>42.56</ele>
      </trkpt>
      <trkpt lat="12.47128" lon="-69.95575">
        <ele>42.19</ele>
      </trkpt>
      <trkpt lat="12.47124" lon="-69.95571">
        <ele>41.78</ele>
      </trkpt>
      <trkpt lat="12.4712" lon="-69.95568">
        <ele>41.39</ele>
      </trkpt>
      <trkpt lat="12.47115" lon="-69.95564">
        <ele>40.85</ele>
      </trkpt>
      <trkpt lat="12.47111" lon="-69.95561">
        <ele>40.39</ele>
      </trkpt>
      <trkpt lat="12.47108" lon="-69.95557">
        <ele>39.99</ele>
      </trkpt>
      <trkpt lat="12.47107" lon="-69.95552">
        <ele>39.58</ele>
      </trkpt>
      <trkpt lat="12.47107" lon="-69.95546">
        <ele>39.11</ele>
      </trkpt>
      <trkpt lat="12.47107" lon="-69.95541">
        <ele>38.73</ele>
      </trkpt>
      <trkpt lat="12.47108" lon="-69.95538">
        <ele>38.55</ele>
      </trkpt>
      <trkpt lat="12.47108" lon="-69.95538">
        <ele>38.55</ele>
      </trkpt>
      <trkpt lat="12.47117" lon="-69.95528">
        <ele>38.65</ele>
      </trkpt>
      <trkpt lat="12.47127" lon="-69.95517">
        <ele>39.11</ele>
      </trkpt>
      <trkpt lat="12.47135" lon="-69.95502">
        <ele>38.85</ele>
      </trkpt>
      <trkpt lat="12.47132" lon="-69.9549">
        <ele>38.33</ele>
      </trkpt>
      <trkpt lat="12.47127" lon="-69.95475">
        <ele>37.37</ele>
      </trkpt>
      <trkpt lat="12.47127" lon="-69.95469">
        <ele>37.17</ele>
      </trkpt>
      <trkpt lat="12.47126" lon="-69.95468">
        <ele>36.99</ele>
      </trkpt>
      <trkpt lat="12.47125" lon="-69.95463">
        <ele>36.67</ele>
      </trkpt>
      <trkpt lat="12.47124" lon="-69.95457">
        <ele>36.31</ele>
      </trkpt>
      <trkpt lat="12.47122" lon="-69.95452">
        <ele>35.84</ele>
      </trkpt>
      <trkpt lat="12.47118" lon="-69.95447">
        <ele>35.08</ele>
      </trkpt>
      <trkpt lat="12.47114" lon="-69.95443">
        <ele>34.36</ele>
      </trkpt>
      <trkpt lat="12.47109" lon="-69.95441">
        <ele>33.56</ele>
      </trkpt>
      <trkpt lat="12.47105" lon="-69.95438">
        <ele>32.84</ele>
      </trkpt>
      <trkpt lat="12.471" lon="-69.95436">
        <ele>31.97</ele>
      </trkpt>
      <trkpt lat="12.47096" lon="-69.95431">
        <ele>31.08</ele>
      </trkpt>
      <trkpt lat="12.47092" lon="-69.95427">
        <ele>30.19</ele>
      </trkpt>
      <trkpt lat="12.47088" lon="-69.95423">
        <ele>29.26</ele>
      </trkpt>
      <trkpt lat="12.47085" lon="-69.95419">
        <ele>28.46</ele>
      </trkpt>
      <trkpt lat="12.47081" lon="-69.95415">
        <ele>28.1</ele>
      </trkpt>
      <trkpt lat="12.47079" lon="-69.9541">
        <ele>28.56</ele>
      </trkpt>
      <trkpt lat="12.47076" lon="-69.95406">
        <ele>28.89</ele>
      </trkpt>
      <trkpt lat="12.47073" lon="-69.95401">
        <ele>29.32</ele>
      </trkpt>
      <trkpt lat="12.47069" lon="-69.95396">
        <ele>29.72</ele>
      </trkpt>
      <trkpt lat="12.47065" lon="-69.95392">
        <ele>30.0</ele>
      </trkpt>
      <trkpt lat="12.4706" lon="-69.95391">
        <ele>29.93</ele>
      </trkpt>
      <trkpt lat="12.47055" lon="-69.95389">
        <ele>29.95</ele>
      </trkpt>
      <trkpt lat="12.4705" lon="-69.95388">
        <ele>29.68</ele>
      </trkpt>
      <trkpt lat="12.47046" lon="-69.95388">
        <ele>29.4</ele>
      </trkpt>
      <trkpt lat="12.47043" lon="-69.95392">
        <ele>28.76</ele>
      </trkpt>
      <trkpt lat="12.4704" lon="-69.95397">
        <ele>28.0</ele>
      </trkpt>
      <trkpt lat="12.47035" lon="-69.95398">
        <ele>27.54</ele>
      </trkpt>
      <trkpt lat="12.47029" lon="-69.95399">
        <ele>27.0</ele>
      </trkpt>
      <trkpt lat="12.47029" lon="-69.95399">
        <ele>27.0</ele>
      </trkpt>
      <trkpt lat="12.47024" lon="-69.95397">
        <ele>26.99</ele>
      </trkpt>
      <trkpt lat="12.47019" lon="-69.95396">
        <ele>26.92</ele>
      </trkpt>
      <trkpt lat="12.47014" lon="-69.95396">
        <ele>26.74</ele>
      </trkpt>
      <trkpt lat="12.47014" lon="-69.95396">
        <ele>26.74</ele>
      </trkpt>
      <trkpt lat="12.47011" lon="-69.95396">
        <ele>26.63</ele>
      </trkpt>
      <trkpt lat="12.47003" lon="-69.95396">
        <ele>26.34</ele>
      </trkpt>
      <trkpt lat="12.46996" lon="-69.9539">
        <ele>27.04</ele>
      </trkpt>
      <trkpt lat="12.46999" lon="-69.95384">
        <ele>27.72</ele>
      </trkpt>
      <trkpt lat="12.47004" lon="-69.95377">
        <ele>28.86</ele>
      </trkpt>
      <trkpt lat="12.47008" lon="-69.95372">
        <ele>29.72</ele>
      </trkpt>
      <trkpt lat="12.47009" lon="-69.95367">
        <ele>30.48</ele>
      </trkpt>
      <trkpt lat="12.47009" lon="-69.95365">
        <ele>30.76</ele>
      </trkpt>
      <trkpt lat="12.47003" lon="-69.95358">
        <ele>31.44</ele>
      </trkpt>
      <trkpt lat="12.46998" lon="-69.95352">
        <ele>31.79</ele>
      </trkpt>
      <trkpt lat="12.46994" lon="-69.95334">
        <ele>33.07</ele>
      </trkpt>
      <trkpt lat="12.46994" lon="-69.95332">
        <ele>33.23</ele>
      </trkpt>
      <trkpt lat="12.46992" lon="-69.95322">
        <ele>33.66</ele>
      </trkpt>
      <trkpt lat="12.4699" lon="-69.9531">
        <ele>34.24</ele>
      </trkpt>
      <trkpt lat="12.46987" lon="-69.95308">
        <ele>33.95</ele>
      </trkpt>
      <trkpt lat="12.46987" lon="-69.95299">
        <ele>34.58</ele>
      </trkpt>
      <trkpt lat="12.46983" lon="-69.95293">
        <ele>34.56</ele>
      </trkpt>
      <trkpt lat="12.46976" lon="-69.95289">
        <ele>34.17</ele>
      </trkpt>
      <trkpt lat="12.46974" lon="-69.95282">
        <ele>34.69</ele>
      </trkpt>
      <trkpt lat="12.46971" lon="-69.95275">
        <ele>35.07</ele>
      </trkpt>
      <trkpt lat="12.46967" lon="-69.9526">
        <ele>35.84</ele>
      </trkpt>
      <trkpt lat="12.46961" lon="-69.95258">
        <ele>35.5</ele>
      </trkpt>
      <trkpt lat="12.4696" lon="-69.95261">
        <ele>35.15</ele>
      </trkpt>
      <trkpt lat="12.46958" lon="-69.95264">
        <ele>34.71</ele>
      </trkpt>
      <trkpt lat="12.46954" lon="-69.95267">
        <ele>34.06</ele>
      </trkpt>
      <trkpt lat="12.46951" lon="-69.95268">
        <ele>33.68</ele>
      </trkpt>
      <trkpt lat="12.4695" lon="-69.95272">
        <ele>33.18</ele>
      </trkpt>
      <trkpt lat="12.4695" lon="-69.95279">
        <ele>32.47</ele>
      </trkpt>
      <trkpt lat="12.46948" lon="-69.95282">
        <ele>31.93</ele>
      </trkpt>
      <trkpt lat="12.46945" lon="-69.95284">
        <ele>31.39</ele>
      </trkpt>
      <trkpt lat="12.46946" lon="-69.95286">
        <ele>31.28</ele>
      </trkpt>
      <trkpt lat="12.4695" lon="-69.95293">
        <ele>30.96</ele>
      </trkpt>
      <trkpt lat="12.46952" lon="-69.95297">
        <ele>30.74</ele>
      </trkpt>
      <trkpt lat="12.46951" lon="-69.95309">
        <ele>29.27</ele>
      </trkpt>
      <trkpt lat="12.4695" lon="-69.95316">
        <ele>28.25</ele>
      </trkpt>
      <trkpt lat="12.46949" lon="-69.95322">
        <ele>27.32</ele>
      </trkpt>
      <trkpt lat="12.46949" lon="-69.95331">
        <ele>26.13</ele>
      </trkpt>
      <trkpt lat="12.46949" lon="-69.95338">
        <ele>26.07</ele>
      </trkpt>
      <trkpt lat="12.46948" lon="-69.95341">
        <ele>26.09</ele>
      </trkpt>
      <trkpt lat="12.46945" lon="-69.95343">
        <ele>25.78</ele>
      </trkpt>
      <trkpt lat="12.4694" lon="-69.95341">
        <ele>25.0</ele>
      </trkpt>
      <trkpt lat="12.46936" lon="-69.95337">
        <ele>24.13</ele>
      </trkpt>
      <trkpt lat="12.46932" lon="-69.95336">
        <ele>23.49</ele>
      </trkpt>
      <trkpt lat="12.46929" lon="-69.95336">
        <ele>23.07</ele>
      </trkpt>
      <trkpt lat="12.46928" lon="-69.9534">
        <ele>23.4</ele>
      </trkpt>
      <trkpt lat="12.46923" lon="-69.95345">
        <ele>23.4</ele>
      </trkpt>
      <trkpt lat="12.46918" lon="-69.95346">
        <ele>22.97</ele>
      </trkpt>
      <trkpt lat="12.46913" lon="-69.95344">
        <ele>22.75</ele>
      </trkpt>
      <trkpt lat="12.46907" lon="-69.95345">
        <ele>23.23</ele>
      </trkpt>
      <trkpt lat="12.46899" lon="-69.95348">
        <ele>24.05</ele>
      </trkpt>
      <trkpt lat="12.46893" lon="-69.95352">
        <ele>24.82</ele>
      </trkpt>
      <trkpt lat="12.46887" lon="-69.95351">
        <ele>25.0</ele>
      </trkpt>
      <trkpt lat="12.4688" lon="-69.95347">
        <ele>24.96</ele>
      </trkpt>
      <trkpt lat="12.4688" lon="-69.95347">
        <ele>24.96</ele>
      </trkpt>
      <trkpt lat="12.4688" lon="-69.95347">
        <ele>24.96</ele>
      </trkpt>
      <trkpt lat="12.4688" lon="-69.95347">
        <ele>24.96</ele>
      </trkpt>
      <trkpt lat="12.46873" lon="-69.95349">
        <ele>25.51</ele>
      </trkpt>
      <trkpt lat="12.46868" lon="-69.95348">
        <ele>25.69</ele>
      </trkpt>
      <trkpt lat="12.46866" lon="-69.95347">
        <ele>25.72</ele>
      </trkpt>
      <trkpt lat="12.46864" lon="-69.95347">
        <ele>25.83</ele>
      </trkpt>
      <trkpt lat="12.4686" lon="-69.9535">
        <ele>26.26</ele>
      </trkpt>
      <trkpt lat="12.46855" lon="-69.95351">
        <ele>26.57</ele>
      </trkpt>
      <trkpt lat="12.4685" lon="-69.95354">
        <ele>26.99</ele>
      </trkpt>
      <trkpt lat="12.46845" lon="-69.95355">
        <ele>27.27</ele>
      </trkpt>
      <trkpt lat="12.46841" lon="-69.95358">
        <ele>27.58</ele>
      </trkpt>
      <trkpt lat="12.46837" lon="-69.9536">
        <ele>27.82</ele>
      </trkpt>
      <trkpt lat="12.46833" lon="-69.95364">
        <ele>28.1</ele>
      </trkpt>
      <trkpt lat="12.46829" lon="-69.95366">
        <ele>28.18</ele>
      </trkpt>
      <trkpt lat="12.46825" lon="-69.95369">
        <ele>28.28</ele>
      </trkpt>
      <trkpt lat="12.46821" lon="-69.95371">
        <ele>28.36</ele>
      </trkpt>
      <trkpt lat="12.46817" lon="-69.95375">
        <ele>28.5</ele>
      </trkpt>
      <trkpt lat="12.46813" lon="-69.95378">
        <ele>28.61</ele>
      </trkpt>
      <trkpt lat="12.46809" lon="-69.95381">
        <ele>28.72</ele>
      </trkpt>
      <trkpt lat="12.46806" lon="-69.95385">
        <ele>28.86</ele>
      </trkpt>
      <trkpt lat="12.46802" lon="-69.95388">
        <ele>28.84</ele>
      </trkpt>
      <trkpt lat="12.46798" lon="-69.95391">
        <ele>28.73</ele>
      </trkpt>
      <trkpt lat="12.46794" lon="-69.95394">
        <ele>28.58</ele>
      </trkpt>
      <trkpt lat="12.46789" lon="-69.95396">
        <ele>28.4</ele>
      </trkpt>
      <trkpt lat="12.46784" lon="-69.95395">
        <ele>28.22</ele>
      </trkpt>
      <trkpt lat="12.46779" lon="-69.95393">
        <ele>28.04</ele>
      </trkpt>
      <trkpt lat="12.46774" lon="-69.95393">
        <ele>27.98</ele>
      </trkpt>
      <trkpt lat="12.46769" lon="-69.95391">
        <ele>27.98</ele>
      </trkpt>
      <trkpt lat="12.46763" lon="-69.95391">
        <ele>27.96</ele>
      </trkpt>
      <trkpt lat="12.46759" lon="-69.95387">
        <ele>28.0</ele>
      </trkpt>
      <trkpt lat="12.46754" lon="-69.95384">
        <ele>28.0</ele>
      </trkpt>
      <trkpt lat="12.4675" lon="-69.95382">
        <ele>28.0</ele>
      </trkpt>
      <trkpt lat="12.46745" lon="-69.95379">
        <ele>28.06</ele>
      </trkpt>
      <trkpt lat="12.46741" lon="-69.95376">
        <ele>28.15</ele>
      </trkpt>
      <trkpt lat="12.46736" lon="-69.95373">
        <ele>28.29</ele>
      </trkpt>
      <trkpt lat="12.46732" lon="-69.9537">
        <ele>28.44</ele>
      </trkpt>
      <trkpt lat="12.46727" lon="-69.95366">
        <ele>28.68</ele>
      </trkpt>
      <trkpt lat="12.46723" lon="-69.95363">
        <ele>28.91</ele>
      </trkpt>
      <trkpt lat="12.46718" lon="-69.9536">
        <ele>29.2</ele>
      </trkpt>
      <trkpt lat="12.46714" lon="-69.95357">
        <ele>29.49</ele>
      </trkpt>
      <trkpt lat="12.46709" lon="-69.95354">
        <ele>29.85</ele>
      </trkpt>
      <trkpt lat="12.46704" lon="-69.95354">
        <ele>30.08</ele>
      </trkpt>
      <trkpt lat="12.46698" lon="-69.95354">
        <ele>30.35</ele>
      </trkpt>
      <trkpt lat="12.46692" lon="-69.95354">
        <ele>30.6</ele>
      </trkpt>
      <trkpt lat="12.46687" lon="-69.95355">
        <ele>30.71</ele>
      </trkpt>
      <trkpt lat="12.46681" lon="-69.95355">
        <ele>30.92</ele>
      </trkpt>
      <trkpt lat="12.46675" lon="-69.95356">
        <ele>31.07</ele>
      </trkpt>
      <trkpt lat="12.46675" lon="-69.95356">
        <ele>31.07</ele>
      </trkpt>
      <trkpt lat="12.4667" lon="-69.95357">
        <ele>31.18</ele>
      </trkpt>
      <trkpt lat="12.46665" lon="-69.95359">
        <ele>31.03</ele>
      </trkpt>
      <trkpt lat="12.4666" lon="-69.9536">
        <ele>30.6</ele>
      </trkpt>
      <trkpt lat="12.46655" lon="-69.95362">
        <ele>30.1</ele>
      </trkpt>
      <trkpt lat="12.4665" lon="-69.95363">
        <ele>29.66</ele>
      </trkpt>
      <trkpt lat="12.46644" lon="-69.95364">
        <ele>29.16</ele>
      </trkpt>
      <trkpt lat="12.46639" lon="-69.95364">
        <ele>28.8</ele>
      </trkpt>
      <trkpt lat="12.46633" lon="-69.95364">
        <ele>28.39</ele>
      </trkpt>
      <trkpt lat="12.46628" lon="-69.95366">
        <ele>27.93</ele>
      </trkpt>
      <trkpt lat="12.46624" lon="-69.95367">
        <ele>27.62</ele>
      </trkpt>
      <trkpt lat="12.46624" lon="-69.95367">
        <ele>27.62</ele>
      </trkpt>
      <trkpt lat="12.46621" lon="-69.95368">
        <ele>27.38</ele>
      </trkpt>
      <trkpt lat="12.46614" lon="-69.95369">
        <ele>26.89</ele>
      </trkpt>
      <trkpt lat="12.46606" lon="-69.95372">
        <ele>26.35</ele>
      </trkpt>
      <trkpt lat="12.46598" lon="-69.95376">
        <ele>25.74</ele>
      </trkpt>
      <trkpt lat="12.46592" lon="-69.95376">
        <ele>25.41</ele>
      </trkpt>
      <trkpt lat="12.46578" lon="-69.95378">
        <ele>24.59</ele>
      </trkpt>
      <trkpt lat="12.46561" lon="-69.95378">
        <ele>23.98</ele>
      </trkpt>
      <trkpt lat="12.4655" lon="-69.95379">
        <ele>23.51</ele>
      </trkpt>
      <trkpt lat="12.46546" lon="-69.9538">
        <ele>23.3</ele>
      </trkpt>
      <trkpt lat="12.4654" lon="-69.95387">
        <ele>22.58</ele>
      </trkpt>
      <trkpt lat="12.46533" lon="-69.95389">
        <ele>22.18</ele>
      </trkpt>
      <trkpt lat="12.46526" lon="-69.95388">
        <ele>21.94</ele>
      </trkpt>
      <trkpt lat="12.46515" lon="-69.95391">
        <ele>20.93</ele>
      </trkpt>
      <trkpt lat="12.4651" lon="-69.95392">
        <ele>20.5</ele>
      </trkpt>
      <trkpt lat="12.4651" lon="-69.95392">
        <ele>20.5</ele>
      </trkpt>
      <trkpt lat="12.46506" lon="-69.95391">
        <ele>20.28</ele>
      </trkpt>
      <trkpt lat="12.46501" lon="-69.95389">
        <ele>20.06</ele>
      </trkpt>
      <trkpt lat="12.46496" lon="-69.95387">
        <ele>19.91</ele>
      </trkpt>
      <trkpt lat="12.46491" lon="-69.95386">
        <ele>19.63</ele>
      </trkpt>
      <trkpt lat="12.46486" lon="-69.95383">
        <ele>19.52</ele>
      </trkpt>
      <trkpt lat="12.46481" lon="-69.95381">
        <ele>19.29</ele>
      </trkpt>
      <trkpt lat="12.46477" lon="-69.95378">
        <ele>19.2</ele>
      </trkpt>
      <trkpt lat="12.46471" lon="-69.95377">
        <ele>18.77</ele>
      </trkpt>
      <trkpt lat="12.46466" lon="-69.95378">
        <ele>18.34</ele>
      </trkpt>
      <trkpt lat="12.46461" lon="-69.95379">
        <ele>17.9</ele>
      </trkpt>
      <trkpt lat="12.46457" lon="-69.95383">
        <ele>17.33</ele>
      </trkpt>
      <trkpt lat="12.46453" lon="-69.95385">
        <ele>16.9</ele>
      </trkpt>
      <trkpt lat="12.46449" lon="-69.95388">
        <ele>16.39</ele>
      </trkpt>
      <trkpt lat="12.46444" lon="-69.9539">
        <ele>15.89</ele>
      </trkpt>
      <trkpt lat="12.4644" lon="-69.95393">
        <ele>15.38</ele>
      </trkpt>
      <trkpt lat="12.46436" lon="-69.95395">
        <ele>14.95</ele>
      </trkpt>
      <trkpt lat="12.46431" lon="-69.95397">
        <ele>14.45</ele>
      </trkpt>
      <trkpt lat="12.46431" lon="-69.95397">
        <ele>14.45</ele>
      </trkpt>
      <trkpt lat="12.46426" lon="-69.95396">
        <ele>14.16</ele>
      </trkpt>
      <trkpt lat="12.46421" lon="-69.95394">
        <ele>13.94</ele>
      </trkpt>
      <trkpt lat="12.46416" lon="-69.95393">
        <ele>13.75</ele>
      </trkpt>
      <trkpt lat="12.4641" lon="-69.95392">
        <ele>14.26</ele>
      </trkpt>
      <trkpt lat="12.46406" lon="-69.95388">
        <ele>14.8</ele>
      </trkpt>
      <trkpt lat="12.46404" lon="-69.95384">
        <ele>15.09</ele>
      </trkpt>
      <trkpt lat="12.46402" lon="-69.95379">
        <ele>15.41</ele>
      </trkpt>
      <trkpt lat="12.46402" lon="-69.95378">
        <ele>15.45</ele>
      </trkpt>
      <trkpt lat="12.46402" lon="-69.95378">
        <ele>15.45</ele>
      </trkpt>
      <trkpt lat="12.46401" lon="-69.95374">
        <ele>15.66</ele>
      </trkpt>
      <trkpt lat="12.46399" lon="-69.9537">
        <ele>15.95</ele>
      </trkpt>
      <trkpt lat="12.46394" lon="-69.95371">
        <ele>16.28</ele>
      </trkpt>
      <trkpt lat="12.4639" lon="-69.95376">
        <ele>16.38</ele>
      </trkpt>
      <trkpt lat="12.46388" lon="-69.95379">
        <ele>16.39</ele>
      </trkpt>
      <trkpt lat="12.46386" lon="-69.95381">
        <ele>16.39</ele>
      </trkpt>
      <trkpt lat="12.46384" lon="-69.95383">
        <ele>16.39</ele>
      </trkpt>
      <trkpt lat="12.46382" lon="-69.95385">
        <ele>16.39</ele>
      </trkpt>
      <trkpt lat="12.46378" lon="-69.95392">
        <ele>16.26</ele>
      </trkpt>
      <trkpt lat="12.46376" lon="-69.95398">
        <ele>16.11</ele>
      </trkpt>
      <trkpt lat="12.46373" lon="-69.95408">
        <ele>15.98</ele>
      </trkpt>
      <trkpt lat="12.46369" lon="-69.95413">
        <ele>16.22</ele>
      </trkpt>
      <trkpt lat="12.46367" lon="-69.95417">
        <ele>16.36</ele>
      </trkpt>
      <trkpt lat="12.46365" lon="-69.95423">
        <ele>16.42</ele>
      </trkpt>
      <trkpt lat="12.46361" lon="-69.95431">
        <ele>16.49</ele>
      </trkpt>
      <trkpt lat="12.4636" lon="-69.95439">
        <ele>16.24</ele>
      </trkpt>
      <trkpt lat="12.46354" lon="-69.9545">
        <ele>16.15</ele>
      </trkpt>
      <trkpt lat="12.46348" lon="-69.95456">
        <ele>16.08</ele>
      </trkpt>
      <trkpt lat="12.46345" lon="-69.95465">
        <ele>15.72</ele>
      </trkpt>
      <trkpt lat="12.46342" lon="-69.95472">
        <ele>15.32</ele>
      </trkpt>
      <trkpt lat="12.46337" lon="-69.95479">
        <ele>14.68</ele>
      </trkpt>
      <trkpt lat="12.46333" lon="-69.95487">
        <ele>13.94</ele>
      </trkpt>
      <trkpt lat="12.46329" lon="-69.95492">
        <ele>13.62</ele>
      </trkpt>
      <trkpt lat="12.46327" lon="-69.95503">
        <ele>13.22</ele>
      </trkpt>
      <trkpt lat="12.46325" lon="-69.95512">
        <ele>13.86</ele>
      </trkpt>
      <trkpt lat="12.46325" lon="-69.95512">
        <ele>13.86</ele>
      </trkpt>
      <trkpt lat="12.46325" lon="-69.95513">
        <ele>13.94</ele>
      </trkpt>
      <trkpt lat="12.4632" lon="-69.95521">
        <ele>14.51</ele>
      </trkpt>
      <trkpt lat="12.46314" lon="-69.95525">
        <ele>14.8</ele>
      </trkpt>
      <trkpt lat="12.46313" lon="-69.95526">
        <ele>14.87</ele>
      </trkpt>
      <trkpt lat="12.46308" lon="-69.95529">
        <ele>15.09</ele>
      </trkpt>
      <trkpt lat="12.46301" lon="-69.95529">
        <ele>15.09</ele>
      </trkpt>
      <trkpt lat="12.46297" lon="-69.95529">
        <ele>15.09</ele>
      </trkpt>
      <trkpt lat="12.46286" lon="-69.9553">
        <ele>15.16</ele>
      </trkpt>
      <trkpt lat="12.46276" lon="-69.95534">
        <ele>15.5</ele>
      </trkpt>
      <trkpt lat="12.46267" lon="-69.95538">
        <ele>15.98</ele>
      </trkpt>
      <trkpt lat="12.46258" lon="-69.95546">
        <ele>16.56</ele>
      </trkpt>
      <trkpt lat="12.46188" lon="-69.95594">
        <ele>14.15</ele>
      </trkpt>
      <trkpt lat="12.46185" lon="-69.95596">
        <ele>13.86</ele>
      </trkpt>
      <trkpt lat="12.46181" lon="-69.95599">
        <ele>13.47</ele>
      </trkpt>
      <trkpt lat="12.46177" lon="-69.95602">
        <ele>13.07</ele>
      </trkpt>
      <trkpt lat="12.46173" lon="-69.95605">
        <ele>12.68</ele>
      </trkpt>
      <trkpt lat="12.46169" lon="-69.95608">
        <ele>12.28</ele>
      </trkpt>
      <trkpt lat="12.46164" lon="-69.95609">
        <ele>12.16</ele>
      </trkpt>
      <trkpt lat="12.46159" lon="-69.95611">
        <ele>12.28</ele>
      </trkpt>
      <trkpt lat="12.46154" lon="-69.95613">
        <ele>12.42</ele>
      </trkpt>
      <trkpt lat="12.4615" lon="-69.95615">
        <ele>12.54</ele>
      </trkpt>
      <trkpt lat="12.46146" lon="-69.95616">
        <ele>12.7</ele>
      </trkpt>
      <trkpt lat="12.46141" lon="-69.95612">
        <ele>12.92</ele>
      </trkpt>
      <trkpt lat="12.46138" lon="-69.95607">
        <ele>13.03</ele>
      </trkpt>
      <trkpt lat="12.46135" lon="-69.95601">
        <ele>13.09</ele>
      </trkpt>
      <trkpt lat="12.46136" lon="-69.95596">
        <ele>13.05</ele>
      </trkpt>
      <trkpt lat="12.46138" lon="-69.9559">
        <ele>13.01</ele>
      </trkpt>
      <trkpt lat="12.46141" lon="-69.95587">
        <ele>12.99</ele>
      </trkpt>
      <trkpt lat="12.46144" lon="-69.95582">
        <ele>13.05</ele>
      </trkpt>
      <trkpt lat="12.46148" lon="-69.95578">
        <ele>13.19</ele>
      </trkpt>
      <trkpt lat="12.4615" lon="-69.95573">
        <ele>13.37</ele>
      </trkpt>
      <trkpt lat="12.4615" lon="-69.95567">
        <ele>13.59</ele>
      </trkpt>
      <trkpt lat="12.46147" lon="-69.95563">
        <ele>13.73</ele>
      </trkpt>
      <trkpt lat="12.46143" lon="-69.95561">
        <ele>13.8</ele>
      </trkpt>
      <trkpt lat="12.46138" lon="-69.95559">
        <ele>13.85</ele>
      </trkpt>
      <trkpt lat="12.46132" lon="-69.95559">
        <ele>13.66</ele>
      </trkpt>
      <trkpt lat="12.46127" lon="-69.95558">
        <ele>13.52</ele>
      </trkpt>
      <trkpt lat="12.46122" lon="-69.95557">
        <ele>13.37</ele>
      </trkpt>
      <trkpt lat="12.46116" lon="-69.95557">
        <ele>13.17</ele>
      </trkpt>
      <trkpt lat="12.46111" lon="-69.95556">
        <ele>13.0</ele>
      </trkpt>
      <trkpt lat="12.46106" lon="-69.95554">
        <ele>13.05</ele>
      </trkpt>
      <trkpt lat="12.46101" lon="-69.95551">
        <ele>13.1</ele>
      </trkpt>
      <trkpt lat="12.46096" lon="-69.9555">
        <ele>13.09</ele>
      </trkpt>
      <trkpt lat="12.46092" lon="-69.95546">
        <ele>13.11</ele>
      </trkpt>
      <trkpt lat="12.46087" lon="-69.95545">
        <ele>13.05</ele>
      </trkpt>
      <trkpt lat="12.46081" lon="-69.95545">
        <ele>13.08</ele>
      </trkpt>
      <trkpt lat="12.46076" lon="-69.95547">
        <ele>13.26</ele>
      </trkpt>
      <trkpt lat="12.46071" lon="-69.95548">
        <ele>13.44</ele>
      </trkpt>
      <trkpt lat="12.46066" lon="-69.9555">
        <ele>13.62</ele>
      </trkpt>
      <trkpt lat="12.46066" lon="-69.9555">
        <ele>13.62</ele>
      </trkpt>
      <trkpt lat="12.46062" lon="-69.95552">
        <ele>13.77</ele>
      </trkpt>
      <trkpt lat="12.46058" lon="-69.95555">
        <ele>13.91</ele>
      </trkpt>
      <trkpt lat="12.46053" lon="-69.95557">
        <ele>14.09</ele>
      </trkpt>
      <trkpt lat="12.46048" lon="-69.95559">
        <ele>14.27</ele>
      </trkpt>
      <trkpt lat="12.46047" lon="-69.95559">
        <ele>14.31</ele>
      </trkpt>
      <trkpt lat="12.46047" lon="-69.95559">
        <ele>14.31</ele>
      </trkpt>
      <trkpt lat="12.46041" lon="-69.95556">
        <ele>14.52</ele>
      </trkpt>
      <trkpt lat="12.46043" lon="-69.95549">
        <ele>14.45</ele>
      </trkpt>
      <trkpt lat="12.46048" lon="-69.95542">
        <ele>14.27</ele>
      </trkpt>
      <trkpt lat="12.46051" lon="-69.95536">
        <ele>14.16</ele>
      </trkpt>
      <trkpt lat="12.46052" lon="-69.95516">
        <ele>14.18</ele>
      </trkpt>
      <trkpt lat="12.46053" lon="-69.95495">
        <ele>14.51</ele>
      </trkpt>
      <trkpt lat="12.4605" lon="-69.9547">
        <ele>16.06</ele>
      </trkpt>
      <trkpt lat="12.46044" lon="-69.95438">
        <ele>16.82</ele>
      </trkpt>
      <trkpt lat="12.46038" lon="-69.95411">
        <ele>17.65</ele>
      </trkpt>
      <trkpt lat="12.4602" lon="-69.95382">
        <ele>17.94</ele>
      </trkpt>
      <trkpt lat="12.46004" lon="-69.95378">
        <ele>17.07</ele>
      </trkpt>
      <trkpt lat="12.45991" lon="-69.95374">
        <ele>16.72</ele>
      </trkpt>
      <trkpt lat="12.45983" lon="-69.95359">
        <ele>16.85</ele>
      </trkpt>
      <trkpt lat="12.45983" lon="-69.95355">
        <ele>17.0</ele>
      </trkpt>
      <trkpt lat="12.45984" lon="-69.95347">
        <ele>17.36</ele>
      </trkpt>
      <trkpt lat="12.45983" lon="-69.95344">
        <ele>17.39</ele>
      </trkpt>
      <trkpt lat="12.4598" lon="-69.95339">
        <ele>17.36</ele>
      </trkpt>
      <trkpt lat="12.45979" lon="-69.95334">
        <ele>17.46</ele>
      </trkpt>
      <trkpt lat="12.45975" lon="-69.95329">
        <ele>17.36</ele>
      </trkpt>
      <trkpt lat="12.45975" lon="-69.95329">
        <ele>17.36</ele>
      </trkpt>
      <trkpt lat="12.45976" lon="-69.95323">
        <ele>17.64</ele>
      </trkpt>
      <trkpt lat="12.45976" lon="-69.95318">
        <ele>17.82</ele>
      </trkpt>
      <trkpt lat="12.45976" lon="-69.95312">
        <ele>18.04</ele>
      </trkpt>
      <trkpt lat="12.45977" lon="-69.95307">
        <ele>18.29</ele>
      </trkpt>
      <trkpt lat="12.45978" lon="-69.95301">
        <ele>18.55</ele>
      </trkpt>
      <trkpt lat="12.45979" lon="-69.95295">
        <ele>18.78</ele>
      </trkpt>
      <trkpt lat="12.45979" lon="-69.95295">
        <ele>18.78</ele>
      </trkpt>
      <trkpt lat="12.45979" lon="-69.95295">
        <ele>18.78</ele>
      </trkpt>
      <trkpt lat="12.45979" lon="-69.95291">
        <ele>18.88</ele>
      </trkpt>
      <trkpt lat="12.4598" lon="-69.95287">
        <ele>19.04</ele>
      </trkpt>
      <trkpt lat="12.4598" lon="-69.95285">
        <ele>19.09</ele>
      </trkpt>
      <trkpt lat="12.4598" lon="-69.95284">
        <ele>19.12</ele>
      </trkpt>
      <trkpt lat="12.4598" lon="-69.95275">
        <ele>19.38</ele>
      </trkpt>
      <trkpt lat="12.45997" lon="-69.95256">
        <ele>20.68</ele>
      </trkpt>
      <trkpt lat="12.45999" lon="-69.95255">
        <ele>20.78</ele>
      </trkpt>
      <trkpt lat="12.46001" lon="-69.95254">
        <ele>20.9</ele>
      </trkpt>
      <trkpt lat="12.46002" lon="-69.95251">
        <ele>21.04</ele>
      </trkpt>
      <trkpt lat="12.46002" lon="-69.95248">
        <ele>21.29</ele>
      </trkpt>
      <trkpt lat="12.46002" lon="-69.95244">
        <ele>21.72</ele>
      </trkpt>
      <trkpt lat="12.46005" lon="-69.95243">
        <ele>21.94</ele>
      </trkpt>
      <trkpt lat="12.46006" lon="-69.95241">
        <ele>22.19</ele>
      </trkpt>
      <trkpt lat="12.46006" lon="-69.95239">
        <ele>22.4</ele>
      </trkpt>
      <trkpt lat="12.46004" lon="-69.95236">
        <ele>22.66</ele>
      </trkpt>
      <trkpt lat="12.46004" lon="-69.95235">
        <ele>22.76</ele>
      </trkpt>
      <trkpt lat="12.46003" lon="-69.95231">
        <ele>23.16</ele>
      </trkpt>
      <trkpt lat="12.46011" lon="-69.95215">
        <ele>25.33</ele>
      </trkpt>
      <trkpt lat="12.46014" lon="-69.95209">
        <ele>26.17</ele>
      </trkpt>
      <trkpt lat="12.46016" lon="-69.95201">
        <ele>27.19</ele>
      </trkpt>
      <trkpt lat="12.46009" lon="-69.9519">
        <ele>28.43</ele>
      </trkpt>
      <trkpt lat="12.46005" lon="-69.95184">
        <ele>29.06</ele>
      </trkpt>
      <trkpt lat="12.46006" lon="-69.95171">
        <ele>30.35</ele>
      </trkpt>
      <trkpt lat="12.46005" lon="-69.95169">
        <ele>30.58</ele>
      </trkpt>
      <trkpt lat="12.46002" lon="-69.95166">
        <ele>30.86</ele>
      </trkpt>
      <trkpt lat="12.45999" lon="-69.95158">
        <ele>29.97</ele>
      </trkpt>
      <trkpt lat="12.45995" lon="-69.95147">
        <ele>28.46</ele>
      </trkpt>
      <trkpt lat="12.45995" lon="-69.95147">
        <ele>28.46</ele>
      </trkpt>
      <trkpt lat="12.45994" lon="-69.95146">
        <ele>28.28</ele>
      </trkpt>
      <trkpt lat="12.4599" lon="-69.95142">
        <ele>27.58</ele>
      </trkpt>
      <trkpt lat="12.45985" lon="-69.95141">
        <ele>27.11</ele>
      </trkpt>
      <trkpt lat="12.4598" lon="-69.9514">
        <ele>26.65</ele>
      </trkpt>
      <trkpt lat="12.45975" lon="-69.95138">
        <ele>26.16</ele>
      </trkpt>
      <trkpt lat="12.4597" lon="-69.95136">
        <ele>25.82</ele>
      </trkpt>
      <trkpt lat="12.45966" lon="-69.95131">
        <ele>25.56</ele>
      </trkpt>
      <trkpt lat="12.45962" lon="-69.95127">
        <ele>25.36</ele>
      </trkpt>
      <trkpt lat="12.45958" lon="-69.95123">
        <ele>25.21</ele>
      </trkpt>
      <trkpt lat="12.45954" lon="-69.95119">
        <ele>25.1</ele>
      </trkpt>
      <trkpt lat="12.4595" lon="-69.95115">
        <ele>25.03</ele>
      </trkpt>
      <trkpt lat="12.45945" lon="-69.95112">
        <ele>25.0</ele>
      </trkpt>
      <trkpt lat="12.45941" lon="-69.95106">
        <ele>24.86</ele>
      </trkpt>
      <trkpt lat="12.45939" lon="-69.95101">
        <ele>24.78</ele>
      </trkpt>
      <trkpt lat="12.45941" lon="-69.95097">
        <ele>24.62</ele>
      </trkpt>
      <trkpt lat="12.45945" lon="-69.95095">
        <ele>24.41</ele>
      </trkpt>
      <trkpt lat="12.45948" lon="-69.95095">
        <ele>24.35</ele>
      </trkpt>
      <trkpt lat="12.45948" lon="-69.95094">
        <ele>24.31</ele>
      </trkpt>
      <trkpt lat="12.45957" lon="-69.95094">
        <ele>24.11</ele>
      </trkpt>
      <trkpt lat="12.45963" lon="-69.95089">
        <ele>23.67</ele>
      </trkpt>
      <trkpt lat="12.45975" lon="-69.95085">
        <ele>22.93</ele>
      </trkpt>
      <trkpt lat="12.45979" lon="-69.95083">
        <ele>22.53</ele>
      </trkpt>
      <trkpt lat="12.45979" lon="-69.95083">
        <ele>22.53</ele>
      </trkpt>
      <trkpt lat="12.45983" lon="-69.9508">
        <ele>22.39</ele>
      </trkpt>
      <trkpt lat="12.45987" lon="-69.95077">
        <ele>22.29</ele>
      </trkpt>
      <trkpt lat="12.45992" lon="-69.95075">
        <ele>22.09</ele>
      </trkpt>
      <trkpt lat="12.45996" lon="-69.95073">
        <ele>21.98</ele>
      </trkpt>
      <trkpt lat="12.46" lon="-69.9507">
        <ele>21.96</ele>
      </trkpt>
      <trkpt lat="12.46005" lon="-69.95067">
        <ele>22.61</ele>
      </trkpt>
      <trkpt lat="12.46008" lon="-69.95064">
        <ele>23.06</ele>
      </trkpt>
      <trkpt lat="12.46012" lon="-69.95061">
        <ele>23.56</ele>
      </trkpt>
      <trkpt lat="12.46016" lon="-69.95058">
        <ele>24.03</ele>
      </trkpt>
      <trkpt lat="12.4602" lon="-69.95055">
        <ele>24.46</ele>
      </trkpt>
      <trkpt lat="12.46024" lon="-69.95052">
        <ele>24.86</ele>
      </trkpt>
      <trkpt lat="12.46028" lon="-69.95049">
        <ele>25.26</ele>
      </trkpt>
      <trkpt lat="12.46031" lon="-69.95046">
        <ele>25.69</ele>
      </trkpt>
      <trkpt lat="12.46035" lon="-69.95042">
        <ele>26.27</ele>
      </trkpt>
      <trkpt lat="12.46038" lon="-69.95038">
        <ele>26.74</ele>
      </trkpt>
      <trkpt lat="12.46042" lon="-69.95035">
        <ele>27.28</ele>
      </trkpt>
      <trkpt lat="12.46045" lon="-69.9503">
        <ele>27.78</ele>
      </trkpt>
      <trkpt lat="12.46048" lon="-69.95027">
        <ele>28.2</ele>
      </trkpt>
      <trkpt lat="12.46052" lon="-69.95023">
        <ele>28.66</ele>
      </trkpt>
      <trkpt lat="12.46055" lon="-69.95019">
        <ele>28.95</ele>
      </trkpt>
      <trkpt lat="12.46059" lon="-69.95016">
        <ele>29.25</ele>
      </trkpt>
      <trkpt lat="12.46063" lon="-69.95013">
        <ele>29.54</ele>
      </trkpt>
      <trkpt lat="12.46067" lon="-69.9501">
        <ele>29.82</ele>
      </trkpt>
      <trkpt lat="12.46071" lon="-69.95007">
        <ele>30.11</ele>
      </trkpt>
      <trkpt lat="12.46074" lon="-69.95004">
        <ele>30.33</ele>
      </trkpt>
      <trkpt lat="12.46079" lon="-69.95001">
        <ele>30.69</ele>
      </trkpt>
      <trkpt lat="12.46082" lon="-69.94998">
        <ele>30.91</ele>
      </trkpt>
      <trkpt lat="12.46086" lon="-69.94995">
        <ele>31.11</ele>
      </trkpt>
      <trkpt lat="12.4609" lon="-69.94992">
        <ele>31.31</ele>
      </trkpt>
      <trkpt lat="12.46094" lon="-69.94989">
        <ele>31.54</ele>
      </trkpt>
      <trkpt lat="12.46098" lon="-69.94985">
        <ele>31.81</ele>
      </trkpt>
      <trkpt lat="12.46102" lon="-69.94983">
        <ele>32.08</ele>
      </trkpt>
      <trkpt lat="12.46105" lon="-69.9498">
        <ele>32.34</ele>
      </trkpt>
      <trkpt lat="12.46105" lon="-69.94979">
        <ele>32.37</ele>
      </trkpt>
      <trkpt lat="12.4611" lon="-69.94977">
        <ele>32.75</ele>
      </trkpt>
      <trkpt lat="12.46113" lon="-69.94973">
        <ele>33.04</ele>
      </trkpt>
      <trkpt lat="12.46117" lon="-69.94971">
        <ele>33.27</ele>
      </trkpt>
      <trkpt lat="12.46121" lon="-69.94967">
        <ele>33.61</ele>
      </trkpt>
      <trkpt lat="12.46124" lon="-69.94964">
        <ele>33.9</ele>
      </trkpt>
      <trkpt lat="12.46128" lon="-69.9496">
        <ele>34.32</ele>
      </trkpt>
      <trkpt lat="12.46132" lon="-69.94956">
        <ele>34.78</ele>
      </trkpt>
      <trkpt lat="12.46134" lon="-69.94953">
        <ele>35.09</ele>
      </trkpt>
      <trkpt lat="12.46134" lon="-69.94953">
        <ele>35.09</ele>
      </trkpt>
      <trkpt lat="12.46135" lon="-69.94953">
        <ele>35.15</ele>
      </trkpt>
      <trkpt lat="12.46139" lon="-69.94949">
        <ele>35.68</ele>
      </trkpt>
      <trkpt lat="12.46143" lon="-69.94947">
        <ele>36.11</ele>
      </trkpt>
      <trkpt lat="12.46146" lon="-69.94943">
        <ele>36.63</ele>
      </trkpt>
      <trkpt lat="12.46151" lon="-69.94941">
        <ele>37.17</ele>
      </trkpt>
      <trkpt lat="12.46154" lon="-69.94937">
        <ele>37.77</ele>
      </trkpt>
      <trkpt lat="12.46158" lon="-69.94934">
        <ele>38.39</ele>
      </trkpt>
      <trkpt lat="12.46163" lon="-69.94932">
        <ele>39.02</ele>
      </trkpt>
      <trkpt lat="12.46167" lon="-69.9493">
        <ele>39.58</ele>
      </trkpt>
      <trkpt lat="12.46171" lon="-69.94927">
        <ele>40.1</ele>
      </trkpt>
      <trkpt lat="12.46175" lon="-69.94924">
        <ele>40.59</ele>
      </trkpt>
      <trkpt lat="12.4618" lon="-69.94922">
        <ele>41.0</ele>
      </trkpt>
      <trkpt lat="12.46183" lon="-69.94918">
        <ele>41.47</ele>
      </trkpt>
      <trkpt lat="12.46187" lon="-69.94916">
        <ele>41.73</ele>
      </trkpt>
      <trkpt lat="12.46191" lon="-69.94912">
        <ele>41.88</ele>
      </trkpt>
      <trkpt lat="12.46195" lon="-69.9491">
        <ele>42.04</ele>
      </trkpt>
      <trkpt lat="12.46199" lon="-69.94906">
        <ele>42.33</ele>
      </trkpt>
      <trkpt lat="12.46203" lon="-69.94904">
        <ele>42.62</ele>
      </trkpt>
      <trkpt lat="12.46207" lon="-69.949">
        <ele>42.9</ele>
      </trkpt>
      <trkpt lat="12.46211" lon="-69.94897">
        <ele>43.19</ele>
      </trkpt>
      <trkpt lat="12.46214" lon="-69.94894">
        <ele>43.41</ele>
      </trkpt>
      <trkpt lat="12.46219" lon="-69.94891">
        <ele>43.77</ele>
      </trkpt>
      <trkpt lat="12.46222" lon="-69.94888">
        <ele>44.02</ele>
      </trkpt>
      <trkpt lat="12.46226" lon="-69.94885">
        <ele>44.41</ele>
      </trkpt>
      <trkpt lat="12.46226" lon="-69.94885">
        <ele>44.41</ele>
      </trkpt>
      <trkpt lat="12.4623" lon="-69.94882">
        <ele>44.81</ele>
      </trkpt>
      <trkpt lat="12.46233" lon="-69.94878">
        <ele>45.17</ele>
      </trkpt>
      <trkpt lat="12.46237" lon="-69.94875">
        <ele>45.56</ele>
      </trkpt>
      <trkpt lat="12.4624" lon="-69.94871">
        <ele>45.92</ele>
      </trkpt>
      <trkpt lat="12.46242" lon="-69.94869">
        <ele>46.14</ele>
      </trkpt>
      <trkpt lat="12.46242" lon="-69.94869">
        <ele>46.14</ele>
      </trkpt>
      <trkpt lat="12.46244" lon="-69.94867">
        <ele>46.36</ele>
      </trkpt>
      <trkpt lat="12.46247" lon="-69.94864">
        <ele>46.68</ele>
      </trkpt>
      <trkpt lat="12.46252" lon="-69.94861">
        <ele>47.0</ele>
      </trkpt>
      <trkpt lat="12.46254" lon="-69.94857">
        <ele>47.15</ele>
      </trkpt>
      <trkpt lat="12.46255" lon="-69.94851">
        <ele>47.36</ele>
      </trkpt>
      <trkpt lat="12.46255" lon="-69.94846">
        <ele>47.54</ele>
      </trkpt>
      <trkpt lat="12.46255" lon="-69.9484">
        <ele>47.76</ele>
      </trkpt>
      <trkpt lat="12.46257" lon="-69.94835">
        <ele>47.94</ele>
      </trkpt>
      <trkpt lat="12.4626" lon="-69.9483">
        <ele>48.04</ele>
      </trkpt>
      <trkpt lat="12.46264" lon="-69.94827">
        <ele>48.11</ele>
      </trkpt>
      <trkpt lat="12.46268" lon="-69.94824">
        <ele>48.22</ele>
      </trkpt>
      <trkpt lat="12.46273" lon="-69.94823">
        <ele>48.31</ele>
      </trkpt>
      <trkpt lat="12.46278" lon="-69.94822">
        <ele>48.41</ele>
      </trkpt>
      <trkpt lat="12.46284" lon="-69.94822">
        <ele>48.5</ele>
      </trkpt>
      <trkpt lat="12.4629" lon="-69.94821">
        <ele>48.64</ele>
      </trkpt>
      <trkpt lat="12.46295" lon="-69.94819">
        <ele>48.84</ele>
      </trkpt>
      <trkpt lat="12.463" lon="-69.94818">
        <ele>48.99</ele>
      </trkpt>
      <trkpt lat="12.46305" lon="-69.94817">
        <ele>49.16</ele>
      </trkpt>
      <trkpt lat="12.4631" lon="-69.94815">
        <ele>49.43</ele>
      </trkpt>
      <trkpt lat="12.46315" lon="-69.94814">
        <ele>49.63</ele>
      </trkpt>
      <trkpt lat="12.4632" lon="-69.94813">
        <ele>49.84</ele>
      </trkpt>
      <trkpt lat="12.46326" lon="-69.94813">
        <ele>50.0</ele>
      </trkpt>
      <trkpt lat="12.46332" lon="-69.94812">
        <ele>50.27</ele>
      </trkpt>
      <trkpt lat="12.46337" lon="-69.94811">
        <ele>50.39</ele>
      </trkpt>
      <trkpt lat="12.46342" lon="-69.94809">
        <ele>50.59</ele>
      </trkpt>
      <trkpt lat="12.46347" lon="-69.94808">
        <ele>50.69</ele>
      </trkpt>
      <trkpt lat="12.46352" lon="-69.94806">
        <ele>50.94</ele>
      </trkpt>
      <trkpt lat="12.46357" lon="-69.94805">
        <ele>51.06</ele>
      </trkpt>
      <trkpt lat="12.46357" lon="-69.94805">
        <ele>51.06</ele>
      </trkpt>
      <trkpt lat="12.46363" lon="-69.94804">
        <ele>51.17</ele>
      </trkpt>
      <trkpt lat="12.46369" lon="-69.94804">
        <ele>51.18</ele>
      </trkpt>
      <trkpt lat="12.46374" lon="-69.94803">
        <ele>51.32</ele>
      </trkpt>
      <trkpt lat="12.4638" lon="-69.94803">
        <ele>51.34</ele>
      </trkpt>
      <trkpt lat="12.46385" lon="-69.94802">
        <ele>51.49</ele>
      </trkpt>
      <trkpt lat="12.46385" lon="-69.94802">
        <ele>51.49</ele>
      </trkpt>
      <trkpt lat="12.46386" lon="-69.94802">
        <ele>51.5</ele>
      </trkpt>
      <trkpt lat="12.46392" lon="-69.94802">
        <ele>51.51</ele>
      </trkpt>
      <trkpt lat="12.46397" lon="-69.94801">
        <ele>51.66</ele>
      </trkpt>
      <trkpt lat="12.46402" lon="-69.948">
        <ele>51.8</ele>
      </trkpt>
      <trkpt lat="12.46408" lon="-69.94799">
        <ele>51.94</ele>
      </trkpt>
      <trkpt lat="12.46412" lon="-69.94796">
        <ele>52.38</ele>
      </trkpt>
      <trkpt lat="12.46416" lon="-69.94793">
        <ele>52.81</ele>
      </trkpt>
      <trkpt lat="12.4642" lon="-69.94791">
        <ele>53.16</ele>
      </trkpt>
      <trkpt lat="12.46424" lon="-69.94788">
        <ele>53.69</ele>
      </trkpt>
      <trkpt lat="12.46428" lon="-69.94785">
        <ele>54.26</ele>
      </trkpt>
      <trkpt lat="12.46432" lon="-69.94782">
        <ele>54.86</ele>
      </trkpt>
      <trkpt lat="12.46436" lon="-69.94779">
        <ele>55.49</ele>
      </trkpt>
      <trkpt lat="12.46439" lon="-69.94775">
        <ele>56.22</ele>
      </trkpt>
      <trkpt lat="12.46443" lon="-69.94772">
        <ele>56.79</ele>
      </trkpt>
      <trkpt lat="12.46447" lon="-69.94769">
        <ele>57.29</ele>
      </trkpt>
      <trkpt lat="12.46451" lon="-69.94766">
        <ele>57.8</ele>
      </trkpt>
      <trkpt lat="12.46456" lon="-69.94765">
        <ele>58.03</ele>
      </trkpt>
      <trkpt lat="12.46461" lon="-69.94762">
        <ele>58.61</ele>
      </trkpt>
      <trkpt lat="12.46466" lon="-69.94762">
        <ele>58.71</ele>
      </trkpt>
      <trkpt lat="12.4647" lon="-69.94758">
        <ele>59.5</ele>
      </trkpt>
      <trkpt lat="12.46474" lon="-69.94756">
        <ele>59.92</ele>
      </trkpt>
      <trkpt lat="12.46474" lon="-69.94756">
        <ele>59.92</ele>
      </trkpt>
      <trkpt lat="12.46478" lon="-69.94752">
        <ele>60.64</ele>
      </trkpt>
      <trkpt lat="12.46482" lon="-69.9475">
        <ele>61.0</ele>
      </trkpt>
      <trkpt lat="12.46485" lon="-69.94746">
        <ele>61.35</ele>
      </trkpt>
      <trkpt lat="12.4649" lon="-69.94744">
        <ele>61.57</ele>
      </trkpt>
      <trkpt lat="12.46493" lon="-69.9474">
        <ele>61.99</ele>
      </trkpt>
      <trkpt lat="12.46497" lon="-69.94738">
        <ele>62.25</ele>
      </trkpt>
      <trkpt lat="12.46501" lon="-69.94734">
        <ele>62.64</ele>
      </trkpt>
      <trkpt lat="12.46501" lon="-69.94734">
        <ele>62.64</ele>
      </trkpt>
      <trkpt lat="12.46505" lon="-69.94731">
        <ele>62.57</ele>
      </trkpt>
      <trkpt lat="12.46509" lon="-69.94728">
        <ele>62.47</ele>
      </trkpt>
      <trkpt lat="12.46513" lon="-69.94725">
        <ele>62.34</ele>
      </trkpt>
      <trkpt lat="12.46517" lon="-69.94723">
        <ele>62.1</ele>
      </trkpt>
      <trkpt lat="12.46522" lon="-69.9472">
        <ele>61.74</ele>
      </trkpt>
      <trkpt lat="12.46526" lon="-69.94718">
        <ele>61.36</ele>
      </trkpt>
      <trkpt lat="12.4653" lon="-69.94716">
        <ele>60.9</ele>
      </trkpt>
      <trkpt lat="12.46535" lon="-69.94715">
        <ele>60.22</ele>
      </trkpt>
      <trkpt lat="12.4654" lon="-69.94717">
        <ele>59.43</ele>
      </trkpt>
      <trkpt lat="12.46545" lon="-69.94719">
        <ele>58.64</ele>
      </trkpt>
      <trkpt lat="12.4655" lon="-69.94718">
        <ele>57.95</ele>
      </trkpt>
      <trkpt lat="12.46555" lon="-69.94716">
        <ele>57.3</ele>
      </trkpt>
      <trkpt lat="12.46555" lon="-69.94716">
        <ele>57.3</ele>
      </trkpt>
      <trkpt lat="12.46555" lon="-69.94716">
        <ele>57.3</ele>
      </trkpt>
      <trkpt lat="12.46558" lon="-69.94712">
        <ele>57.04</ele>
      </trkpt>
      <trkpt lat="12.46562" lon="-69.94708">
        <ele>56.58</ele>
      </trkpt>
      <trkpt lat="12.46564" lon="-69.94704">
        <ele>56.35</ele>
      </trkpt>
      <trkpt lat="12.46567" lon="-69.94699">
        <ele>55.91</ele>
      </trkpt>
      <trkpt lat="12.4657" lon="-69.94695">
        <ele>55.4</ele>
      </trkpt>
      <trkpt lat="12.46571" lon="-69.94689">
        <ele>55.31</ele>
      </trkpt>
      <trkpt lat="12.46571" lon="-69.94687">
        <ele>55.34</ele>
      </trkpt>
      <trkpt lat="12.46571" lon="-69.94687">
        <ele>55.34</ele>
      </trkpt>
      <trkpt lat="12.46572" lon="-69.94683">
        <ele>55.21</ele>
      </trkpt>
      <trkpt lat="12.46572" lon="-69.94678">
        <ele>55.28</ele>
      </trkpt>
      <trkpt lat="12.46573" lon="-69.94672">
        <ele>55.16</ele>
      </trkpt>
      <trkpt lat="12.46573" lon="-69.94667">
        <ele>55.23</ele>
      </trkpt>
      <trkpt lat="12.46574" lon="-69.94661">
        <ele>55.22</ele>
      </trkpt>
      <trkpt lat="12.46575" lon="-69.94656">
        <ele>55.18</ele>
      </trkpt>
      <trkpt lat="12.46576" lon="-69.9465">
        <ele>55.18</ele>
      </trkpt>
      <trkpt lat="12.46577" lon="-69.94645">
        <ele>55.15</ele>
      </trkpt>
      <trkpt lat="12.46579" lon="-69.94639">
        <ele>54.93</ele>
      </trkpt>
      <trkpt lat="12.46582" lon="-69.94635">
        <ele>54.29</ele>
      </trkpt>
      <trkpt lat="12.46586" lon="-69.94633">
        <ele>53.35</ele>
      </trkpt>
      <trkpt lat="12.46591" lon="-69.9463">
        <ele>52.16</ele>
      </trkpt>
      <trkpt lat="12.46595" lon="-69.94628">
        <ele>51.22</ele>
      </trkpt>
      <trkpt lat="12.46599" lon="-69.94625">
        <ele>50.33</ele>
      </trkpt>
      <trkpt lat="12.46603" lon="-69.94622">
        <ele>49.47</ele>
      </trkpt>
      <trkpt lat="12.46607" lon="-69.94619">
        <ele>48.65</ele>
      </trkpt>
      <trkpt lat="12.4661" lon="-69.94616">
        <ele>48.07</ele>
      </trkpt>
      <trkpt lat="12.46615" lon="-69.94613">
        <ele>46.95</ele>
      </trkpt>
      <trkpt lat="12.46618" lon="-69.9461">
        <ele>46.27</ele>
      </trkpt>
      <trkpt lat="12.46622" lon="-69.94607">
        <ele>45.31</ele>
      </trkpt>
      <trkpt lat="12.46626" lon="-69.94604">
        <ele>44.39</ele>
      </trkpt>
      <trkpt lat="12.46631" lon="-69.94602">
        <ele>43.22</ele>
      </trkpt>
      <trkpt lat="12.46636" lon="-69.94603">
        <ele>41.99</ele>
      </trkpt>
      <trkpt lat="12.4664" lon="-69.94607">
        <ele>40.87</ele>
      </trkpt>
      <trkpt lat="12.46644" lon="-69.94612">
        <ele>39.68</ele>
      </trkpt>
      <trkpt lat="12.46647" lon="-69.94617">
        <ele>38.74</ele>
      </trkpt>
      <trkpt lat="12.46646" lon="-69.94623">
        <ele>38.78</ele>
      </trkpt>
      <trkpt lat="12.46646" lon="-69.94628">
        <ele>38.6</ele>
      </trkpt>
      <trkpt lat="12.46647" lon="-69.94634">
        <ele>38.13</ele>
      </trkpt>
      <trkpt lat="12.46647" lon="-69.94639">
        <ele>37.95</ele>
      </trkpt>
      <trkpt lat="12.46648" lon="-69.94644">
        <ele>37.52</ele>
      </trkpt>
      <trkpt lat="12.4665" lon="-69.9465">
        <ele>36.8</ele>
      </trkpt>
      <trkpt lat="12.46651" lon="-69.94655">
        <ele>36.37</ele>
      </trkpt>
      <trkpt lat="12.46653" lon="-69.94661">
        <ele>35.65</ele>
      </trkpt>
      <trkpt lat="12.46654" lon="-69.94666">
        <ele>35.22</ele>
      </trkpt>
      <trkpt lat="12.46655" lon="-69.94671">
        <ele>34.69</ele>
      </trkpt>
      <trkpt lat="12.46656" lon="-69.94677">
        <ele>34.09</ele>
      </trkpt>
      <trkpt lat="12.46657" lon="-69.94682">
        <ele>33.52</ele>
      </trkpt>
      <trkpt lat="12.46657" lon="-69.94688">
        <ele>33.17</ele>
      </trkpt>
      <trkpt lat="12.46659" lon="-69.94693">
        <ele>32.3</ele>
      </trkpt>
      <trkpt lat="12.46659" lon="-69.94698">
        <ele>31.99</ele>
      </trkpt>
      <trkpt lat="12.46661" lon="-69.94704">
        <ele>31.01</ele>
      </trkpt>
      <trkpt lat="12.46661" lon="-69.94709">
        <ele>30.69</ele>
      </trkpt>
      <trkpt lat="12.46662" lon="-69.94715">
        <ele>29.99</ele>
      </trkpt>
      <trkpt lat="12.46663" lon="-69.9472">
        <ele>29.34</ele>
      </trkpt>
      <trkpt lat="12.46664" lon="-69.94726">
        <ele>28.59</ele>
      </trkpt>
      <trkpt lat="12.46665" lon="-69.94731">
        <ele>27.91</ele>
      </trkpt>
      <trkpt lat="12.46668" lon="-69.94736">
        <ele>27.08</ele>
      </trkpt>
      <trkpt lat="12.46671" lon="-69.94742">
        <ele>26.84</ele>
      </trkpt>
      <trkpt lat="12.46674" lon="-69.94747">
        <ele>26.72</ele>
      </trkpt>
      <trkpt lat="12.46678" lon="-69.94752">
        <ele>27.18</ele>
      </trkpt>
      <trkpt lat="12.46682" lon="-69.94757">
        <ele>28.36</ele>
      </trkpt>
      <trkpt lat="12.46686" lon="-69.94761">
        <ele>29.37</ele>
      </trkpt>
      <trkpt lat="12.46691" lon="-69.94762">
        <ele>29.91</ele>
      </trkpt>
      <trkpt lat="12.46691" lon="-69.94762">
        <ele>29.91</ele>
      </trkpt>
      <trkpt lat="12.46696" lon="-69.9476">
        <ele>29.88</ele>
      </trkpt>
      <trkpt lat="12.46701" lon="-69.94758">
        <ele>29.74</ele>
      </trkpt>
      <trkpt lat="12.46706" lon="-69.94756">
        <ele>29.59</ele>
      </trkpt>
      <trkpt lat="12.4671" lon="-69.94754">
        <ele>29.36</ele>
      </trkpt>
      <trkpt lat="12.46715" lon="-69.94752">
        <ele>29.15</ele>
      </trkpt>
      <trkpt lat="12.4672" lon="-69.94751">
        <ele>29.13</ele>
      </trkpt>
      <trkpt lat="12.46725" lon="-69.94749">
        <ele>29.23</ele>
      </trkpt>
      <trkpt lat="12.4673" lon="-69.94748">
        <ele>29.61</ele>
      </trkpt>
      <trkpt lat="12.46735" lon="-69.94748">
        <ele>29.96</ele>
      </trkpt>
      <trkpt lat="12.46741" lon="-69.94749">
        <ele>30.36</ele>
      </trkpt>
      <trkpt lat="12.46746" lon="-69.9475">
        <ele>30.71</ele>
      </trkpt>
      <trkpt lat="12.46746" lon="-69.9475">
        <ele>30.71</ele>
      </trkpt>
      <trkpt lat="12.46751" lon="-69.94752">
        <ele>31.51</ele>
      </trkpt>
      <trkpt lat="12.46756" lon="-69.94753">
        <ele>32.1</ele>
      </trkpt>
      <trkpt lat="12.46761" lon="-69.94754">
        <ele>32.71</ele>
      </trkpt>
      <trkpt lat="12.46766" lon="-69.94756">
        <ele>33.57</ele>
      </trkpt>
      <trkpt lat="12.46771" lon="-69.94758">
        <ele>34.46</ele>
      </trkpt>
      <trkpt lat="12.46777" lon="-69.94758">
        <ele>34.95</ele>
      </trkpt>
      <trkpt lat="12.46782" lon="-69.94759">
        <ele>35.47</ele>
      </trkpt>
      <trkpt lat="12.46787" lon="-69.9476">
        <ele>35.97</ele>
      </trkpt>
      <trkpt lat="12.46793" lon="-69.94759">
        <ele>35.99</ele>
      </trkpt>
      <trkpt lat="12.46798" lon="-69.94758">
        <ele>35.95</ele>
      </trkpt>
      <trkpt lat="12.46803" lon="-69.94756">
        <ele>35.62</ele>
      </trkpt>
      <trkpt lat="12.46808" lon="-69.94755">
        <ele>35.63</ele>
      </trkpt>
      <trkpt lat="12.46812" lon="-69.94752">
        <ele>35.06</ele>
      </trkpt>
      <trkpt lat="12.46817" lon="-69.9475">
        <ele>34.82</ele>
      </trkpt>
      <trkpt lat="12.46821" lon="-69.94747">
        <ele>35.11</ele>
      </trkpt>
      <trkpt lat="12.46825" lon="-69.94745">
        <ele>35.4</ele>
      </trkpt>
      <trkpt lat="12.46829" lon="-69.94741">
        <ele>35.69</ele>
      </trkpt>
      <trkpt lat="12.46833" lon="-69.94738">
        <ele>35.98</ele>
      </trkpt>
      <trkpt lat="12.46836" lon="-69.94735">
        <ele>36.18</ele>
      </trkpt>
      <trkpt lat="12.46841" lon="-69.94732">
        <ele>36.47</ele>
      </trkpt>
      <trkpt lat="12.46844" lon="-69.94729">
        <ele>36.57</ele>
      </trkpt>
      <trkpt lat="12.46848" lon="-69.94729">
        <ele>36.79</ele>
      </trkpt>
      <trkpt lat="12.46848" lon="-69.94729">
        <ele>36.79</ele>
      </trkpt>
      <trkpt lat="12.46871" lon="-69.94717">
        <ele>37.27</ele>
      </trkpt>
      <trkpt lat="12.46884" lon="-69.94713">
        <ele>37.71</ele>
      </trkpt>
      <trkpt lat="12.46895" lon="-69.94713">
        <ele>38.15</ele>
      </trkpt>
      <trkpt lat="12.46907" lon="-69.94721">
        <ele>39.49</ele>
      </trkpt>
      <trkpt lat="12.46927" lon="-69.94742">
        <ele>42.29</ele>
      </trkpt>
      <trkpt lat="12.46944" lon="-69.94766">
        <ele>44.53</ele>
      </trkpt>
      <trkpt lat="12.46959" lon="-69.94782">
        <ele>45.29</ele>
      </trkpt>
      <trkpt lat="12.4697" lon="-69.94792">
        <ele>45.47</ele>
      </trkpt>
      <trkpt lat="12.46973" lon="-69.94794">
        <ele>45.36</ele>
      </trkpt>
      <trkpt lat="12.46976" lon="-69.94796">
        <ele>45.21</ele>
      </trkpt>
      <trkpt lat="12.4698" lon="-69.94799">
        <ele>45.04</ele>
      </trkpt>
      <trkpt lat="12.46985" lon="-69.94802">
        <ele>44.59</ele>
      </trkpt>
      <trkpt lat="12.46989" lon="-69.94806">
        <ele>44.46</ele>
      </trkpt>
      <trkpt lat="12.46994" lon="-69.94809">
        <ele>43.92</ele>
      </trkpt>
      <trkpt lat="12.46998" lon="-69.94812">
        <ele>43.59</ele>
      </trkpt>
      <trkpt lat="12.47003" lon="-69.94815">
        <ele>43.56</ele>
      </trkpt>
      <trkpt lat="12.47007" lon="-69.94818">
        <ele>43.88</ele>
      </trkpt>
      <trkpt lat="12.47012" lon="-69.9482">
        <ele>43.94</ele>
      </trkpt>
      <trkpt lat="12.47017" lon="-69.94823">
        <ele>44.14</ele>
      </trkpt>
      <trkpt lat="12.47022" lon="-69.94825">
        <ele>44.15</ele>
      </trkpt>
      <trkpt lat="12.47025" lon="-69.9483">
        <ele>44.71</ele>
      </trkpt>
      <trkpt lat="12.4703" lon="-69.94834">
        <ele>45.09</ele>
      </trkpt>
      <trkpt lat="12.47033" lon="-69.94839">
        <ele>46.2</ele>
      </trkpt>
      <trkpt lat="12.47037" lon="-69.94843">
        <ele>46.99</ele>
      </trkpt>
      <trkpt lat="12.47038" lon="-69.94843">
        <ele>46.94</ele>
      </trkpt>
      <trkpt lat="12.47043" lon="-69.94843">
        <ele>46.7</ele>
      </trkpt>
      <trkpt lat="12.47048" lon="-69.94844">
        <ele>46.68</ele>
      </trkpt>
      <trkpt lat="12.47053" lon="-69.94844">
        <ele>46.43</ele>
      </trkpt>
      <trkpt lat="12.47053" lon="-69.94844">
        <ele>46.43</ele>
      </trkpt>
      <trkpt lat="12.47058" lon="-69.94845">
        <ele>46.31</ele>
      </trkpt>
      <trkpt lat="12.47064" lon="-69.94848">
        <ele>46.4</ele>
      </trkpt>
      <trkpt lat="12.47071" lon="-69.94861">
        <ele>48.31</ele>
      </trkpt>
      <trkpt lat="12.47077" lon="-69.94865">
        <ele>48.52</ele>
      </trkpt>
      <trkpt lat="12.4708" lon="-69.94867">
        <ele>48.63</ele>
      </trkpt>
      <trkpt lat="12.47093" lon="-69.94872">
        <ele>49.7</ele>
      </trkpt>
      <trkpt lat="12.47105" lon="-69.94873">
        <ele>50.35</ele>
      </trkpt>
      <trkpt lat="12.47111" lon="-69.94875">
        <ele>51.0</ele>
      </trkpt>
      <trkpt lat="12.47129" lon="-69.94877">
        <ele>52.72</ele>
      </trkpt>
      <trkpt lat="12.47136" lon="-69.94875">
        <ele>52.79</ele>
      </trkpt>
      <trkpt lat="12.47152" lon="-69.94868">
        <ele>51.96</ele>
      </trkpt>
      <trkpt lat="12.47194" lon="-69.94859">
        <ele>48.57</ele>
      </trkpt>
      <trkpt lat="12.47209" lon="-69.94859">
        <ele>47.54</ele>
      </trkpt>
      <trkpt lat="12.47237" lon="-69.94863">
        <ele>46.28</ele>
      </trkpt>
      <trkpt lat="12.47258" lon="-69.94857">
        <ele>45.31</ele>
      </trkpt>
      <trkpt lat="12.47265" lon="-69.94859">
        <ele>46.36</ele>
      </trkpt>
      <trkpt lat="12.47275" lon="-69.94863">
        <ele>47.86</ele>
      </trkpt>
      <trkpt lat="12.47282" lon="-69.94872">
        <ele>49.03</ele>
      </trkpt>
      <trkpt lat="12.47284" lon="-69.94894">
        <ele>50.69</ele>
      </trkpt>
      <trkpt lat="12.47292" lon="-69.94906">
        <ele>51.73</ele>
      </trkpt>
      <trkpt lat="12.473" lon="-69.94922">
        <ele>52.28</ele>
      </trkpt>
      <trkpt lat="12.47303" lon="-69.9495">
        <ele>52.13</ele>
      </trkpt>
      <trkpt lat="12.47303" lon="-69.94955">
        <ele>52.0</ele>
      </trkpt>
      <trkpt lat="12.47303" lon="-69.9496">
        <ele>51.87</ele>
      </trkpt>
      <trkpt lat="12.47303" lon="-69.94966">
        <ele>51.71</ele>
      </trkpt>
      <trkpt lat="12.47306" lon="-69.94971">
        <ele>50.96</ele>
      </trkpt>
      <trkpt lat="12.47308" lon="-69.94976">
        <ele>50.52</ele>
      </trkpt>
      <trkpt lat="12.4731" lon="-69.94982">
        <ele>50.03</ele>
      </trkpt>
      <trkpt lat="12.47313" lon="-69.94987">
        <ele>49.23</ele>
      </trkpt>
      <trkpt lat="12.47315" lon="-69.94992">
        <ele>48.57</ele>
      </trkpt>
      <trkpt lat="12.47318" lon="-69.94997">
        <ele>47.56</ele>
      </trkpt>
      <trkpt lat="12.47322" lon="-69.95003">
        <ele>46.48</ele>
      </trkpt>
      <trkpt lat="12.47326" lon="-69.95008">
        <ele>45.69</ele>
      </trkpt>
      <trkpt lat="12.47329" lon="-69.95013">
        <ele>45.18</ele>
      </trkpt>
      <trkpt lat="12.47333" lon="-69.95018">
        <ele>44.39</ele>
      </trkpt>
      <trkpt lat="12.47337" lon="-69.95023">
        <ele>44.81</ele>
      </trkpt>
      <trkpt lat="12.47341" lon="-69.95029">
        <ele>45.37</ele>
      </trkpt>
      <trkpt lat="12.47344" lon="-69.95034">
        <ele>45.8</ele>
      </trkpt>
      <trkpt lat="12.47348" lon="-69.95039">
        <ele>46.1</ele>
      </trkpt>
      <trkpt lat="12.47352" lon="-69.95044">
        <ele>46.25</ele>
      </trkpt>
      <trkpt lat="12.47355" lon="-69.95049">
        <ele>46.28</ele>
      </trkpt>
      <trkpt lat="12.47359" lon="-69.95055">
        <ele>46.15</ele>
      </trkpt>
      <trkpt lat="12.47361" lon="-69.9506">
        <ele>46.01</ele>
      </trkpt>
      <trkpt lat="12.47362" lon="-69.9506">
        <ele>45.93</ele>
      </trkpt>
      <trkpt lat="12.47361" lon="-69.95065">
        <ele>46.01</ele>
      </trkpt>
      <trkpt lat="12.47361" lon="-69.95071">
        <ele>46.01</ele>
      </trkpt>
      <trkpt lat="12.47361" lon="-69.95076">
        <ele>46.01</ele>
      </trkpt>
      <trkpt lat="12.47362" lon="-69.95082">
        <ele>45.88</ele>
      </trkpt>
      <trkpt lat="12.47366" lon="-69.95087">
        <ele>44.92</ele>
      </trkpt>
      <trkpt lat="12.47367" lon="-69.95092">
        <ele>44.28</ele>
      </trkpt>
      <trkpt lat="12.47368" lon="-69.95094">
        <ele>43.95</ele>
      </trkpt>
      <trkpt lat="12.47368" lon="-69.95094">
        <ele>43.95</ele>
      </trkpt>
      <trkpt lat="12.4737" lon="-69.95098">
        <ele>43.3</ele>
      </trkpt>
      <trkpt lat="12.4737" lon="-69.95103">
        <ele>42.82</ele>
      </trkpt>
      <trkpt lat="12.47368" lon="-69.95109">
        <ele>42.47</ele>
      </trkpt>
      <trkpt lat="12.47364" lon="-69.95112">
        <ele>42.6</ele>
      </trkpt>
      <trkpt lat="12.47362" lon="-69.95117">
        <ele>42.28</ele>
      </trkpt>
      <trkpt lat="12.47358" lon="-69.9512">
        <ele>42.23</ele>
      </trkpt>
      <trkpt lat="12.47355" lon="-69.95124">
        <ele>41.95</ele>
      </trkpt>
      <trkpt lat="12.47351" lon="-69.95128">
        <ele>41.68</ele>
      </trkpt>
      <trkpt lat="12.4735" lon="-69.95132">
        <ele>41.24</ele>
      </trkpt>
      <trkpt lat="12.47352" lon="-69.95137">
        <ele>40.55</ele>
      </trkpt>
      <trkpt lat="12.47355" lon="-69.95143">
        <ele>39.71</ele>
      </trkpt>
      <trkpt lat="12.47357" lon="-69.95148">
        <ele>39.07</ele>
      </trkpt>
      <trkpt lat="12.47359" lon="-69.95153">
        <ele>38.47</ele>
      </trkpt>
      <trkpt lat="12.47362" lon="-69.95157">
        <ele>38.03</ele>
      </trkpt>
      <trkpt lat="12.47362" lon="-69.95157">
        <ele>38.03</ele>
      </trkpt>
      <trkpt lat="12.47367" lon="-69.95159">
        <ele>37.77</ele>
      </trkpt>
      <trkpt lat="12.47371" lon="-69.95162">
        <ele>37.44</ele>
      </trkpt>
      <trkpt lat="12.47376" lon="-69.95164">
        <ele>37.24</ele>
      </trkpt>
      <trkpt lat="12.47381" lon="-69.95167">
        <ele>37.07</ele>
      </trkpt>
      <trkpt lat="12.47384" lon="-69.95168">
        <ele>37.28</ele>
      </trkpt>
      <trkpt lat="12.47384" lon="-69.95168">
        <ele>37.28</ele>
      </trkpt>
      <trkpt lat="12.47391" lon="-69.95172">
        <ele>38.23</ele>
      </trkpt>
      <trkpt lat="12.47404" lon="-69.95177">
        <ele>39.78</ele>
      </trkpt>
      <trkpt lat="12.4741" lon="-69.95186">
        <ele>41.94</ele>
      </trkpt>
      <trkpt lat="12.4742" lon="-69.95196">
        <ele>44.41</ele>
      </trkpt>
      <trkpt lat="12.4743" lon="-69.95202">
        <ele>45.97</ele>
      </trkpt>
      <trkpt lat="12.47459" lon="-69.95203">
        <ele>47.37</ele>
      </trkpt>
      <trkpt lat="12.47499" lon="-69.9522">
        <ele>52.56</ele>
      </trkpt>
      <trkpt lat="12.47521" lon="-69.95232">
        <ele>55.6</ele>
      </trkpt>
      <trkpt lat="12.47533" lon="-69.9524">
        <ele>57.39</ele>
      </trkpt>
      <trkpt lat="12.47541" lon="-69.95248">
        <ele>59.12</ele>
      </trkpt>
      <trkpt lat="12.47542" lon="-69.95249">
        <ele>59.33</ele>
      </trkpt>
      <trkpt lat="12.47542" lon="-69.95249">
        <ele>59.33</ele>
      </trkpt>
      <trkpt lat="12.47545" lon="-69.95254">
        <ele>59.82</ele>
      </trkpt>
      <trkpt lat="12.47548" lon="-69.95259">
        <ele>60.14</ele>
      </trkpt>
      <trkpt lat="12.47546" lon="-69.95263">
        <ele>60.28</ele>
      </trkpt>
      <trkpt lat="12.47542" lon="-69.95266">
        <ele>60.37</ele>
      </trkpt>
      <trkpt lat="12.47539" lon="-69.9527">
        <ele>60.55</ele>
      </trkpt>
      <trkpt lat="12.47535" lon="-69.95272">
        <ele>60.64</ele>
      </trkpt>
      <trkpt lat="12.47532" lon="-69.95277">
        <ele>60.95</ele>
      </trkpt>
      <trkpt lat="12.47531" lon="-69.95282">
        <ele>61.15</ele>
      </trkpt>
      <trkpt lat="12.47534" lon="-69.95286">
        <ele>61.3</ele>
      </trkpt>
      <trkpt lat="12.47539" lon="-69.95288">
        <ele>61.37</ele>
      </trkpt>
      <trkpt lat="12.47543" lon="-69.95291">
        <ele>61.48</ele>
      </trkpt>
      <trkpt lat="12.47547" lon="-69.95293">
        <ele>61.55</ele>
      </trkpt>
      <trkpt lat="12.47547" lon="-69.95298">
        <ele>61.73</ele>
      </trkpt>
      <trkpt lat="12.47544" lon="-69.95302">
        <ele>61.87</ele>
      </trkpt>
      <trkpt lat="12.47539" lon="-69.95304">
        <ele>61.94</ele>
      </trkpt>
      <trkpt lat="12.47533" lon="-69.95304">
        <ele>61.94</ele>
      </trkpt>
      <trkpt lat="12.47527" lon="-69.95305">
        <ele>61.98</ele>
      </trkpt>
      <trkpt lat="12.47527" lon="-69.95305">
        <ele>61.98</ele>
      </trkpt>
      <trkpt lat="12.47522" lon="-69.95306">
        <ele>62.02</ele>
      </trkpt>
      <trkpt lat="12.47517" lon="-69.95308">
        <ele>62.12</ele>
      </trkpt>
      <trkpt lat="12.47512" lon="-69.95309">
        <ele>62.19</ele>
      </trkpt>
      <trkpt lat="12.47512" lon="-69.95309">
        <ele>62.19</ele>
      </trkpt>
      <trkpt lat="12.47512" lon="-69.95309">
        <ele>62.19</ele>
      </trkpt>
      <trkpt lat="12.47508" lon="-69.95312">
        <ele>62.4</ele>
      </trkpt>
      <trkpt lat="12.47504" lon="-69.95314">
        <ele>62.56</ele>
      </trkpt>
      <trkpt lat="12.47499" lon="-69.95316">
        <ele>62.67</ele>
      </trkpt>
      <trkpt lat="12.47495" lon="-69.95318">
        <ele>62.46</ele>
      </trkpt>
      <trkpt lat="12.4749" lon="-69.95321">
        <ele>62.19</ele>
      </trkpt>
      <trkpt lat="12.47486" lon="-69.95323">
        <ele>61.93</ele>
      </trkpt>
      <trkpt lat="12.47482" lon="-69.95327">
        <ele>61.75</ele>
      </trkpt>
      <trkpt lat="12.47479" lon="-69.9533">
        <ele>61.58</ele>
      </trkpt>
      <trkpt lat="12.47475" lon="-69.95333">
        <ele>61.29</ele>
      </trkpt>
      <trkpt lat="12.47474" lon="-69.95333">
        <ele>61.18</ele>
      </trkpt>
      <trkpt lat="12.47471" lon="-69.95337">
        <ele>60.35</ele>
      </trkpt>
      <trkpt lat="12.47467" lon="-69.95339">
        <ele>59.7</ele>
      </trkpt>
      <trkpt lat="12.47465" lon="-69.9534">
        <ele>59.38</ele>
      </trkpt>
      <trkpt lat="12.47465" lon="-69.9534">
        <ele>59.38</ele>
      </trkpt>
      <trkpt lat="12.47463" lon="-69.95342">
        <ele>58.96</ele>
      </trkpt>
      <trkpt lat="12.47459" lon="-69.95344">
        <ele>58.4</ele>
      </trkpt>
      <trkpt lat="12.47456" lon="-69.95349">
        <ele>57.65</ele>
      </trkpt>
      <trkpt lat="12.47455" lon="-69.95354">
        <ele>57.09</ele>
      </trkpt>
      <trkpt lat="12.47457" lon="-69.9536">
        <ele>56.57</ele>
      </trkpt>
      <trkpt lat="12.47461" lon="-69.95365">
        <ele>56.09</ele>
      </trkpt>
      <trkpt lat="12.47465" lon="-69.9537">
        <ele>55.54</ele>
      </trkpt>
      <trkpt lat="12.47469" lon="-69.95375">
        <ele>54.94</ele>
      </trkpt>
      <trkpt lat="12.47472" lon="-69.9538">
        <ele>54.28</ele>
      </trkpt>
      <trkpt lat="12.47475" lon="-69.95386">
        <ele>53.34</ele>
      </trkpt>
      <trkpt lat="12.47474" lon="-69.95391">
        <ele>52.55</ele>
      </trkpt>
      <trkpt lat="12.47474" lon="-69.95391">
        <ele>52.55</ele>
      </trkpt>
      <trkpt lat="12.47474" lon="-69.95397">
        <ele>51.46</ele>
      </trkpt>
      <trkpt lat="12.47473" lon="-69.95402">
        <ele>50.6</ele>
      </trkpt>
      <trkpt lat="12.47473" lon="-69.95403">
        <ele>50.42</ele>
      </trkpt>
      <trkpt lat="12.47473" lon="-69.95403">
        <ele>50.42</ele>
      </trkpt>
      <trkpt lat="12.47468" lon="-69.95423">
        <ele>48.19</ele>
      </trkpt>
      <trkpt lat="12.47468" lon="-69.95425">
        <ele>48.11</ele>
      </trkpt>
      <trkpt lat="12.47466" lon="-69.9543">
        <ele>48.08</ele>
      </trkpt>
      <trkpt lat="12.47463" lon="-69.95435">
        <ele>48.12</ele>
      </trkpt>
      <trkpt lat="12.4746" lon="-69.95439">
        <ele>48.16</ele>
      </trkpt>
      <trkpt lat="12.47457" lon="-69.95443">
        <ele>48.18</ele>
      </trkpt>
      <trkpt lat="12.47454" lon="-69.95448">
        <ele>48.18</ele>
      </trkpt>
      <trkpt lat="12.47453" lon="-69.95453">
        <ele>48.08</ele>
      </trkpt>
      <trkpt lat="12.47454" lon="-69.95458">
        <ele>47.82</ele>
      </trkpt>
      <trkpt lat="12.47455" lon="-69.95464">
        <ele>47.54</ele>
      </trkpt>
      <trkpt lat="12.47455" lon="-69.95469">
        <ele>47.36</ele>
      </trkpt>
      <trkpt lat="12.47455" lon="-69.95475">
        <ele>47.14</ele>
      </trkpt>
      <trkpt lat="12.47456" lon="-69.9548">
        <ele>46.89</ele>
      </trkpt>
      <trkpt lat="12.47456" lon="-69.95486">
        <ele>46.67</ele>
      </trkpt>
      <trkpt lat="12.47457" lon="-69.95491">
        <ele>46.42</ele>
      </trkpt>
      <trkpt lat="12.47459" lon="-69.95497">
        <ele>46.06</ele>
      </trkpt>
      <trkpt lat="12.4746" lon="-69.95502">
        <ele>45.85</ele>
      </trkpt>
      <trkpt lat="12.47462" lon="-69.95507">
        <ele>45.64</ele>
      </trkpt>
      <trkpt lat="12.47463" lon="-69.95513">
        <ele>45.51</ele>
      </trkpt>
      <trkpt lat="12.47463" lon="-69.95518">
        <ele>45.45</ele>
      </trkpt>
      <trkpt lat="12.47465" lon="-69.95523">
        <ele>45.3</ele>
      </trkpt>
      <trkpt lat="12.47466" lon="-69.95529">
        <ele>45.21</ele>
      </trkpt>
      <trkpt lat="12.47468" lon="-69.95534">
        <ele>45.12</ele>
      </trkpt>
      <trkpt lat="12.47469" lon="-69.9554">
        <ele>45.06</ele>
      </trkpt>
      <trkpt lat="12.47472" lon="-69.95545">
        <ele>45.0</ele>
      </trkpt>
      <trkpt lat="12.47474" lon="-69.9555">
        <ele>44.94</ele>
      </trkpt>
      <trkpt lat="12.47477" lon="-69.95555">
        <ele>44.83</ele>
      </trkpt>
      <trkpt lat="12.47481" lon="-69.95561">
        <ele>44.75</ele>
      </trkpt>
      <trkpt lat="12.47484" lon="-69.95566">
        <ele>44.74</ele>
      </trkpt>
      <trkpt lat="12.47488" lon="-69.95571">
        <ele>44.75</ele>
      </trkpt>
      <trkpt lat="12.47492" lon="-69.95576">
        <ele>44.81</ele>
      </trkpt>
      <trkpt lat="12.47496" lon="-69.95581">
        <ele>44.93</ele>
      </trkpt>
      <trkpt lat="12.47498" lon="-69.95587">
        <ele>45.0</ele>
      </trkpt>
      <trkpt lat="12.47501" lon="-69.95592">
        <ele>44.87</ele>
      </trkpt>
      <trkpt lat="12.47503" lon="-69.95597">
        <ele>44.62</ele>
      </trkpt>
      <trkpt lat="12.47503" lon="-69.95597">
        <ele>44.62</ele>
      </trkpt>
      <trkpt lat="12.47505" lon="-69.95603">
        <ele>44.41</ele>
      </trkpt>
      <trkpt lat="12.47506" lon="-69.95608">
        <ele>44.33</ele>
      </trkpt>
      <trkpt lat="12.47508" lon="-69.95613">
        <ele>44.14</ele>
      </trkpt>
      <trkpt lat="12.47508" lon="-69.95618">
        <ele>44.14</ele>
      </trkpt>
      <trkpt lat="12.47508" lon="-69.95618">
        <ele>44.14</ele>
      </trkpt>
      <trkpt lat="12.47508" lon="-69.95619">
        <ele>44.14</ele>
      </trkpt>
      <trkpt lat="12.47508" lon="-69.95624">
        <ele>44.14</ele>
      </trkpt>
      <trkpt lat="12.47509" lon="-69.9563">
        <ele>44.03</ele>
      </trkpt>
      <trkpt lat="12.47508" lon="-69.95635">
        <ele>44.14</ele>
      </trkpt>
      <trkpt lat="12.47507" lon="-69.95641">
        <ele>44.24</ele>
      </trkpt>
      <trkpt lat="12.47506" lon="-69.95646">
        <ele>44.35</ele>
      </trkpt>
      <trkpt lat="12.47505" lon="-69.95652">
        <ele>44.46</ele>
      </trkpt>
      <trkpt lat="12.47504" lon="-69.95658">
        <ele>44.57</ele>
      </trkpt>
      <trkpt lat="12.47503" lon="-69.95663">
        <ele>44.68</ele>
      </trkpt>
      <trkpt lat="12.47502" lon="-69.95669">
        <ele>44.71</ele>
      </trkpt>
      <trkpt lat="12.47502" lon="-69.95674">
        <ele>44.54</ele>
      </trkpt>
      <trkpt lat="12.47501" lon="-69.95674">
        <ele>44.64</ele>
      </trkpt>
      <trkpt lat="12.47502" lon="-69.95674">
        <ele>44.54</ele>
      </trkpt>
      <trkpt lat="12.475" lon="-69.9568">
        <ele>44.52</ele>
      </trkpt>
      <trkpt lat="12.47499" lon="-69.95685">
        <ele>44.34</ele>
      </trkpt>
      <trkpt lat="12.47498" lon="-69.95691">
        <ele>44.12</ele>
      </trkpt>
      <trkpt lat="12.47497" lon="-69.95697">
        <ele>43.99</ele>
      </trkpt>
      <trkpt lat="12.47497" lon="-69.95702">
        <ele>43.97</ele>
      </trkpt>
      <trkpt lat="12.47497" lon="-69.95705">
        <ele>43.96</ele>
      </trkpt>
      <trkpt lat="12.47497" lon="-69.95705">
        <ele>43.96</ele>
      </trkpt>
      <trkpt lat="12.47496" lon="-69.95713">
        <ele>43.9</ele>
      </trkpt>
      <trkpt lat="12.47492" lon="-69.95721">
        <ele>43.72</ele>
      </trkpt>
      <trkpt lat="12.47487" lon="-69.95731">
        <ele>43.07</ele>
      </trkpt>
      <trkpt lat="12.47444" lon="-69.95734">
        <ele>40.55</ele>
      </trkpt>
      <trkpt lat="12.47428" lon="-69.95737">
        <ele>39.56</ele>
      </trkpt>
      <trkpt lat="12.47417" lon="-69.95748">
        <ele>38.17</ele>
      </trkpt>
      <trkpt lat="12.47409" lon="-69.95742">
        <ele>38.58</ele>
      </trkpt>
      <trkpt lat="12.47401" lon="-69.95743">
        <ele>38.5</ele>
      </trkpt>
      <trkpt lat="12.47401" lon="-69.95744">
        <ele>38.43</ele>
      </trkpt>
    </trkseg>
  </trk>
</gpx>
